{
  "type": "FeatureCollection",
  "features": [
    {
      "type": "Feature",
      "properties": {
        "norad_id": 34540,
        "name": "IRIDIUM 33 DEB",
        "group": "iridium-33-debris",
        "lat": -83.65343163538174,
        "lon": -88.61974310055291,
        "alt_km": 657.4920439803445,
        "timestamp": "2025-12-14T09:36:23.423393+00:00",
        "meta_object_name": "IRIDIUM 33 DEB",
        "meta_object_id": "1997-051JH",
        "meta_epoch": "2025-12-13T10:09:27.980928",
        "meta_mean_motion": 14.75351942,
        "meta_eccentricity": 0.00165573,
        "meta_inclination": 86.3099,
        "meta_ra_of_asc_node": 307.2946,
        "meta_arg_of_pericenter": 156.7433,
        "meta_mean_anomaly": 332.3414,
        "meta_ephemeris_type": 0,
        "meta_classification_type": "U",
        "meta_norad_cat_id": 34540,
        "meta_element_set_no": 999,
        "meta_rev_at_epoch": 89031,
        "meta_bstar": 0.0027224364,
        "meta_mean_motion_dot": 0.00018553,
        "meta_mean_motion_ddot": 0,
        "tle_line1": "1 34540U 97051JH  25347.42324052  .00018553  00000+0  27224-2 0  9991",
        "tle_line2": "2 34540  86.3099 307.2946 0016557 156.7433 332.3414 14.75351942890319"
      },
      "geometry": {
        "type": "Point",
        "coordinates": [
          -88.61974310055291,
          -83.65343163538174
        ]
      }
    },
    {
      "type": "Feature",
      "properties": {
        "norad_id": 34648,
        "name": "IRIDIUM 33 DEB",
        "group": "iridium-33-debris",
        "lat": 42.65418029868526,
        "lon": -75.3893360336777,
        "alt_km": 891.6970392509202,
        "timestamp": "2025-12-14T09:36:23.423404+00:00",
        "meta_object_name": "IRIDIUM 33 DEB",
        "meta_object_id": "1997-051JZ",
        "meta_epoch": "2025-12-13T12:59:22.076736",
        "meta_mean_motion": 14.1153805,
        "meta_eccentricity": 0.01824486,
        "meta_inclination": 86.3896,
        "meta_ra_of_asc_node": 281.6229,
        "meta_arg_of_pericenter": 296.3909,
        "meta_mean_anomaly": 61.8646,
        "meta_ephemeris_type": 0,
        "meta_classification_type": "U",
        "meta_norad_cat_id": 34648,
        "meta_element_set_no": 999,
        "meta_rev_at_epoch": 84972,
        "meta_bstar": 0.0076327189,
        "meta_mean_motion_dot": 0.00016233,
        "meta_mean_motion_ddot": 0,
        "tle_line1": "1 34648U 97051JZ  25347.54122774  .00016233  00000+0  76327-2 0  9991",
        "tle_line2": "2 34648  86.3896 281.6229 0182448 296.3909  61.8646 14.11538050849721"
      },
      "geometry": {
        "type": "Point",
        "coordinates": [
          -75.3893360336777,
          42.65418029868526
        ]
      }
    },
    {
      "type": "Feature",
      "properties": {
        "norad_id": 34651,
        "name": "IRIDIUM 33 DEB",
        "group": "iridium-33-debris",
        "lat": -3.6268828072977257,
        "lon": -39.8927982231947,
        "alt_km": 710.4668084590994,
        "timestamp": "2025-12-14T09:36:23.423414+00:00",
        "meta_object_name": "IRIDIUM 33 DEB",
        "meta_object_id": "1997-051KC",
        "meta_epoch": "2025-12-13T04:06:39.786912",
        "meta_mean_motion": 14.25830516,
        "meta_eccentricity": 0.01420795,
        "meta_inclination": 86.283,
        "meta_ra_of_asc_node": 140.394,
        "meta_arg_of_pericenter": 202.5687,
        "meta_mean_anomaly": 156.9218,
        "meta_ephemeris_type": 0,
        "meta_classification_type": "U",
        "meta_norad_cat_id": 34651,
        "meta_element_set_no": 999,
        "meta_rev_at_epoch": 85902,
        "meta_bstar": 0.0047329688,
        "meta_mean_motion_dot": 0.00012543,
        "meta_mean_motion_ddot": 0,
        "tle_line1": "1 34651U 97051KC  25347.17129383  .00012543  00000+0  47330-2 0  9999",
        "tle_line2": "2 34651  86.2830 140.3940 0142079 202.5687 156.9218 14.25830516859023"
      },
      "geometry": {
        "type": "Point",
        "coordinates": [
          -39.8927982231947,
          -3.6268828072977257
        ]
      }
    },
    {
      "type": "Feature",
      "properties": {
        "norad_id": 34652,
        "name": "IRIDIUM 33 DEB",
        "group": "iridium-33-debris",
        "lat": 86.06315260796012,
        "lon": 90.46444120285781,
        "alt_km": 696.0085589047585,
        "timestamp": "2025-12-14T09:36:23.423424+00:00",
        "meta_object_name": "IRIDIUM 33 DEB",
        "meta_object_id": "1997-051KD",
        "meta_epoch": "2025-12-13T10:53:19.328352",
        "meta_mean_motion": 14.6207244,
        "meta_eccentricity": 0.00258573,
        "meta_inclination": 86.3313,
        "meta_ra_of_asc_node": 339.6838,
        "meta_arg_of_pericenter": 295.7305,
        "meta_mean_anomaly": 216.5238,
        "meta_ephemeris_type": 0,
        "meta_classification_type": "U",
        "meta_norad_cat_id": 34652,
        "meta_element_set_no": 999,
        "meta_rev_at_epoch": 88494,
        "meta_bstar": 0.001600164,
        "meta_mean_motion_dot": 8.095e-05,
        "meta_mean_motion_ddot": 0,
        "tle_line1": "1 34652U 97051KD  25347.45369593  .00008095  00000+0  16002-2 0  9999",
        "tle_line2": "2 34652  86.3313 339.6838 0025857 295.7305 216.5238 14.62072440884944"
      },
      "geometry": {
        "type": "Point",
        "coordinates": [
          90.46444120285781,
          86.06315260796012
        ]
      }
    },
    {
      "type": "Feature",
      "properties": {
        "norad_id": 34690,
        "name": "IRIDIUM 33 DEB",
        "group": "iridium-33-debris",
        "lat": -85.63952065972983,
        "lon": -19.888249293134635,
        "alt_km": 719.3043791567197,
        "timestamp": "2025-12-14T09:36:23.423435+00:00",
        "meta_object_name": "IRIDIUM 33 DEB",
        "meta_object_id": "1997-051KM",
        "meta_epoch": "2025-12-13T14:54:06.857280",
        "meta_mean_motion": 14.55100621,
        "meta_eccentricity": 0.00107565,
        "meta_inclination": 86.3785,
        "meta_ra_of_asc_node": 36.6083,
        "meta_arg_of_pericenter": 26.8254,
        "meta_mean_anomaly": 125.7841,
        "meta_ephemeris_type": 0,
        "meta_classification_type": "U",
        "meta_norad_cat_id": 34690,
        "meta_element_set_no": 999,
        "meta_rev_at_epoch": 88107,
        "meta_bstar": 0.00059932597,
        "meta_mean_motion_dot": 2.608e-05,
        "meta_mean_motion_ddot": 0,
        "tle_line1": "1 34690U 97051KM  25347.62091270  .00002608  00000+0  59933-3 0  9999",
        "tle_line2": "2 34690  86.3785  36.6083 0010756  26.8254 125.7841 14.55100621881070"
      },
      "geometry": {
        "type": "Point",
        "coordinates": [
          -19.888249293134635,
          -85.63952065972983
        ]
      }
    },
    {
      "type": "Feature",
      "properties": {
        "norad_id": 34693,
        "name": "IRIDIUM 33 DEB",
        "group": "iridium-33-debris",
        "lat": 36.730505623779074,
        "lon": -54.23439419455894,
        "alt_km": 468.977972891028,
        "timestamp": "2025-12-14T09:36:23.423445+00:00",
        "meta_object_name": "IRIDIUM 33 DEB",
        "meta_object_id": "1997-051KQ",
        "meta_epoch": "2025-12-13T15:21:24.941664",
        "meta_mean_motion": 15.28226258,
        "meta_eccentricity": 0.00136245,
        "meta_inclination": 86.3035,
        "meta_ra_of_asc_node": 303.3785,
        "meta_arg_of_pericenter": 52.3569,
        "meta_mean_anomaly": 123.7828,
        "meta_ephemeris_type": 0,
        "meta_classification_type": "U",
        "meta_norad_cat_id": 34693,
        "meta_element_set_no": 999,
        "meta_rev_at_epoch": 88928,
        "meta_bstar": 0.0045164989,
        "meta_mean_motion_dot": 0.00126388,
        "meta_mean_motion_ddot": 0,
        "tle_line1": "1 34693U 97051KQ  25347.63987201  .00126388  00000+0  45165-2 0  9994",
        "tle_line2": "2 34693  86.3035 303.3785 0013624  52.3569 123.7828 15.28226258889284"
      },
      "geometry": {
        "type": "Point",
        "coordinates": [
          -54.23439419455894,
          36.730505623779074
        ]
      }
    },
    {
      "type": "Feature",
      "properties": {
        "norad_id": 34696,
        "name": "IRIDIUM 33 DEB",
        "group": "iridium-33-debris",
        "lat": 69.13700863989583,
        "lon": -163.33184530059333,
        "alt_km": 636.7705671060357,
        "timestamp": "2025-12-14T09:36:23.423455+00:00",
        "meta_object_name": "IRIDIUM 33 DEB",
        "meta_object_id": "1997-051KT",
        "meta_epoch": "2025-12-13T03:54:02.435616",
        "meta_mean_motion": 14.65143747,
        "meta_eccentricity": 0.00741248,
        "meta_inclination": 86.1855,
        "meta_ra_of_asc_node": 27.3258,
        "meta_arg_of_pericenter": 165.9902,
        "meta_mean_anomaly": 260.687,
        "meta_ephemeris_type": 0,
        "meta_classification_type": "U",
        "meta_norad_cat_id": 34696,
        "meta_element_set_no": 999,
        "meta_rev_at_epoch": 86679,
        "meta_bstar": 0.0067723801,
        "meta_mean_motion_dot": 0.00038084,
        "meta_mean_motion_ddot": 0,
        "tle_line1": "1 34696U 97051KT  25347.16252819  .00038084  00000+0  67724-2 0  9995",
        "tle_line2": "2 34696  86.1855  27.3258 0074124 165.9902 260.6870 14.65143747866797"
      },
      "geometry": {
        "type": "Point",
        "coordinates": [
          -163.33184530059333,
          69.13700863989583
        ]
      }
    }
  ]
}